COMMENT,ORIGINATOR,NORAD_CAT_ID,OBJECT_NAME,OBJECT_TYPE,CLASSIFICATION_TYPE,INTLDES,EPOCH,EPOCH_MICROSECONDS,MEAN_MOTION,ECCENTRICITY,INCLINATION,RA_OF_ASC_NODE,ARG_OF_PERICENTER,MEAN_ANOMALY,EPHEMERIS_TYPE,ELEMENT_SET_NO,REV_AT_EPOCH,BSTAR,MEAN_MOTION_DOT,MEAN_MOTION_DDOT,FILE,TLE_LINE0,TLE_LINE1,TLE_LINE2,OBJECT_ID,OBJECT_NUMBER,SEMIMAJOR_AXIS,PERIOD,APOGEE,PERIGEE
"GENERATED VIA SPACETRACK.ORG API","JSPOC","40506","BREEZE-M R/B","ROCKET BODY","U","15012B","2016-01-14 19:00:40","255776","2.11098015","0.5847039","20.0025","105.0388","96.7561","328.9513","0","999","637","0","-9e-07","0","1980707","0 BREEZE-M R/B","1 40506U 15012B   16014.79213259 -.00000090 +00000-0 +00000-0 0  9994","2 40506 020.0025 105.0388 5847039 096.7561 328.9513 02.11098015006375","2015-012B","40506","25669.204","682.147","34299.953","4282.185"
"GENERATED VIA SPACETRACK.ORG API","JSPOC","39492","AIST 1","PAYLOAD","U","13078C","2016-01-14 19:00:49","221504","14.87256425","0.001929","82.4196","318.5978","318.4803","41.496","0","999","11101","7.6921e-05","7.19e-06","0","1980387","0 AIST 1","1 39492U 13078C   16014.79223636  .00000719  00000-0  76921-4 0  9992","2 39492  82.4196 318.5978 0019290 318.4803  41.4960 14.87256425111010","2013-078C","39492","6984.649","96.822","619.987","593.040"
"GENERATED VIA SPACETRACK.ORG API","JSPOC","21031","COSMOS 2117","PAYLOAD","U","90114D","2016-01-14 19:00:53","524224","12.64933616","0.0009619","82.5768","119.1094","91.3833","79.9765","0","999","15729","0.00013601","3.6e-07","0","1980307","0 COSMOS 2117","1 21031U 90114D   16014.79228616  .00000036  00000-0  13601-3 0  9998","2 21031  82.5768 119.1094 0009619  91.3833  79.9765 12.64933616157290","1990-114D","21031","7780.783","113.839","1410.133","1395.164"
"GENERATED VIA SPACETRACK.ORG API","JSPOC","15986","COSMOS 1677","PAYLOAD","U","85075A","2016-01-14 19:01:05","814624","13.86539672","0.0080872","64.6819","243.8277","299.7157","105.7337","0","999","53021","6.6396e-06","-8.4e-07","0","1980310","0 COSMOS 1677","1 15986U 85075A   16014.79242841 -.00000084  00000-0  66396-5 0  9991","2 15986  64.6819 243.8277 0080872 299.7157 105.7337 13.86539672530210","1985-075A","15986","7318.919","103.855","999.974","881.595"
"GENERATED VIA SPACETRACK.ORG API","JSPOC","20791","CZ-4 R/B","ROCKET BODY","U","90081D","2016-01-14 19:01:59","762784","13.92595056","0.00537","99.0355","68.0112","46.4624","87.4465","0","999","28903","9.7746e-06","-3e-07","0","1980339","0 CZ-4 R/B","1 20791U 90081D   16014.79305281 -.00000030  00000-0  97746-5 0  9996","2 20791  99.0355  68.0112 0053700  46.4624  87.4465 13.92595056289032","1990-081D","20791","7297.687","103.404","958.741","880.364"
"GENERATED VIA SPACETRACK.ORG API","JSPOC","40950","FLOCK 2B 1","PAYLOAD","U","98067HB","2016-01-14 19:02:59","447904","15.63657552","0.0004649","51.6404","104.4171","18.0732","342.0427","0","999","1570","0.00046307","0.00043702","0","1980296","0 FLOCK 2B 1","1 40950U 98067HB  16014.79374361  .00043702  00000-0  46307-3 0  9999","2 40950  51.6404 104.4171 0004649  18.0732 342.0427 15.63657552 15702","1998-067HB","40950","6755.239","92.091","380.244","373.963"
"GENERATED VIA SPACETRACK.ORG API","JSPOC","28051","IRS P6","PAYLOAD","U","03046A","2016-01-14 19:03:17","965152","14.21648418","0.0004515","98.6745","94.7812","46.3987","313.7557","0","999","63548","4.7088e-05","6e-07","0","1980279","0 IRS P6","1 28051U 03046A   16014.79395793  .00000060  00000-0  47088-4 0  9990","2 28051  98.6745  94.7812 0004515  46.3987 313.7557 14.21648418635486","2003-046A","28051","7197.920","101.290","823.035","816.535"
"GENERATED VIA SPACETRACK.ORG API","JSPOC","40062","GONETS M 09 (M19)","PAYLOAD","U","14036B","2016-01-14 19:03:17","372448","12.42866752","0.0022469","82.5104","151.6981","174.4186","185.7152","0","999","6959","0","1e-07","0","1980363","0 GONETS M 09 (M19)","1 40062U 14036B   16014.79395107  .00000010  00000-0  00000+0 0  9999","2 40062  82.5104 151.6981 0022469 174.4186 185.7152 12.42866752 69590","2014-036B","40062","7872.611","115.861","1512.165","1476.787"
"GENERATED VIA SPACETRACK.ORG API","JSPOC","40961","JILIN 1","PAYLOAD","U","15057D","2016-01-14 19:03:47","839680","14.73219655","0.0017321","98.031","91.6747","295.4712","64.4698","0","999","1467","6.8098e-05","3.89e-06","0","1980311","0 JILIN 1","1 40961U 15057D   16014.79430370  .00000389  00000-0  68098-4 0  9998","2 40961  98.0310  91.6747 0017321 295.4712  64.4698 14.73219655 14679","2015-057D","40961","7028.945","97.745","662.985","638.635"
"GENERATED VIA SPACETRACK.ORG API","JSPOC","40338","YAOGAN 25A","PAYLOAD","U","14080A","2016-01-14 19:04:34","529376","13.45152776","0.0026012","63.4102","13.8248","339.4094","20.5889","0","999","5381","0","-9e-07","0","1980383","0 YAOGAN 25A","1 40338U 14080A   16014.79484409 -.00000090  00000-0  00000+0 0  9997","2 40338  63.4102  13.8248 0026012 339.4094  20.5889 13.45152776 53815","2014-080A","40338","7468.282","107.051","1109.574","1070.721"
"GENERATED VIA SPACETRACK.ORG API","JSPOC","40340","YAOGAN 25C","PAYLOAD","U","14080C","2016-01-14 19:04:51","399840","13.45152658","0.0026012","63.408","14.6709","339.6801","20.319","0","999","5379","0","-9e-07","0","1980274","0 YAOGAN 25C","1 40340U 14080C   16014.79503935 -.00000090  00000-0  00000+0 0  9996","2 40340  63.4080  14.6709 0026012 339.6801  20.3190 13.45152658 53791","2014-080C","40340","7468.283","107.051","1109.574","1070.721"
"GENERATED VIA SPACETRACK.ORG API","JSPOC","25616","ROCSAT 1","PAYLOAD","U","99002A","2016-01-14 19:04:51","296160","15.22376671","0.0029768","34.9572","181.8324","88.2062","272.2061","0","999","93017","0.00023595","5.615e-05","0","1980358","0 ROCSAT 1","1 25616U 99002A   16014.79503815  .00005615  00000-0  23595-3 0  9994","2 25616  34.9572 181.8324 0029768  88.2062 272.2061 15.22376671930177","1999-002A","25616","6876.811","94.588","519.146","478.205"
"GENERATED VIA SPACETRACK.ORG API","JSPOC","40339","YAOGAN 25B","PAYLOAD","U","14080B","2016-01-14 19:04:53","910624","13.45152535","0.0026052","63.4096","13.8337","339.4696","20.5286","0","999","5381","0","-9e-07","0","1980351","0 YAOGAN 25B","1 40339U 14080B   16014.79506841 -.00000090  00000-0  00000+0 0  9993","2 40339  63.4096  13.8337 0026052 339.4696  20.5286 13.45152535 53813","2014-080B","40339","7468.283","107.051","1109.605","1070.692"
"GENERATED VIA SPACETRACK.ORG API","JSPOC","7228","SCOUT D-1 R/B","ROCKET BODY","U","74013B","2016-01-14 19:05:16","397952","14.41494785","0.010925","97.903","98.7485","198.0538","161.6761","0","999","18965","8.6295e-05","2.59e-06","0","1980315","0 SCOUT D-1 R/B","1 07228U 74013B   16014.79532868  .00000259  00000-0  86295-4 0  9994","2 07228  97.9030  98.7485 0109250 198.0538 161.6761 14.41494785189655","1974-013B","7228","7131.700","99.896","831.479","675.652"
"GENERATED VIA SPACETRACK.ORG API","JSPOC","705","TRANSIT 5E 3","PAYLOAD","U","63049C","2016-01-14 19:05:24","751104","13.47276261","0.0035071","89.9307","104.8039","47.0782","103.3208","0","999","56008","6.5221e-05","5e-07","0","1980303","0 TRANSIT 5E 3","1 00705U 63049C   16014.79542536  .00000050  00000-0  65221-4 0  9992","2 00705  89.9307 104.8039 0035071  47.0782 103.3208 13.47276261560084","1963-049C","705","7460.433","106.882","1108.463","1056.134"
"GENERATED VIA SPACETRACK.ORG API","JSPOC","16140","COSMOS 1692","PAYLOAD","U","85094C","2016-01-14 19:05:44","141856","12.64907119","0.0018314","82.6022","143.5633","39.9228","117.1962","0","999","39750","-3.3373e-05","5e-08","0","1980287","0 COSMOS 1692","1 16140U 85094C   16014.79564979  .00000005  00000-0 -33373-4 0  9995","2 16140  82.6022 143.5633 0018314  39.9228 117.1962 12.64907119397500","1985-094C","16140","7780.892","113.842","1417.007","1388.507"
"GENERATED VIA SPACETRACK.ORG API","JSPOC","40023","FLOCK 1C 10","PAYLOAD","U","14033P","2016-01-14 19:05:54","45888","14.87720465","0.0012193","97.9451","280.7457","208.9834","151.0701","0","999","8525","0.00011229","9.68e-06","0","1980357","0 FLOCK 1C 10","1 40023U 14033P   16014.79576442  .00000968  00000-0  11229-3 0  9997","2 40023  97.9451 280.7457 0012193 208.9834 151.0701 14.87720465 85258","2014-033P","40023","6983.196","96.792","613.576","596.547"
"GENERATED VIA SPACETRACK.ORG API","JSPOC","19807","MOLNIYA 1-75","PAYLOAD","U","89014A","2016-01-14 19:06:03","647520","2.00569437","0.682731","63.6266","192.6098","281.5141","14.4095","0","999","19705","0.010069","1.32e-06","0","1980707","0 MOLNIYA 1-75","1 19807U 89014A   16014.79587555 +.00000132 +00000-0 +10069-1 0  9993","2 19807 063.6266 192.6098 6827310 281.5141 014.4095 02.00569437197051","1989-014A","19807","26559.832","717.955","38314.919","2048.476"
"GENERATED VIA SPACETRACK.ORG API","JSPOC","39160","VNREDSAT 1","PAYLOAD","U","13021B","2016-01-14 19:06:17","741088","14.62938236","0.0001075","98.1331","93.6615","90.4271","269.705","0","999","14366","6.0366e-05","2.62e-06","0","1980344","0 VNREDSAT 1","1 39160U 13021B   16014.79603867  .00000262  00000-0  60366-4 0  9999","2 39160  98.1331  93.6615 0001075  90.4271 269.7050 14.62938236143665","2013-021B","39160","7061.839","98.432","684.463","682.945"
"GENERATED VIA SPACETRACK.ORG API","JSPOC","5918","SL-3 R/B","ROCKET BODY","U","72022B","2016-01-14 19:06:32","275296","14.05793472","0.0058119","81.2387","108.3151","347.0735","12.894","0","999","24502","0.00011775","2.07e-06","0","1980382","0 SL-3 R/B","1 05918U 72022B   16014.79620689  .00000207  00000-0  11775-3 0  9998","2 05918  81.2387 108.3151 0058119 347.0735  12.8940 14.05793472245025","1972-022B","5918","7251.939","102.433","915.951","831.656"
"GENERATED VIA SPACETRACK.ORG API","JSPOC","40894","GAOFEN 9","PAYLOAD","U","15047A","2016-01-14 19:06:40","104000","14.76197246","0.0032809","98.0009","99.1889","212.6661","147.2534","0","999","1809","0","-5.3e-07","0","1980337","0 GAOFEN 9","1 40894U 15047A   16014.79629750 -.00000053  00000-0  00000+0 0  9997","2 40894  98.0009  99.1889 0032809 212.6661 147.2534 14.76197246 18094","2015-047A","40894","7019.490","97.547","664.385","618.325"
